SPOOQY-1                
1 44332U 98067QH  21072.32628369  .00040164  00000-0  35692-3 0  9990
2 44332  51.6348  58.3354 0002851 323.4838  36.5964 15.68106796 98975
FORMOSAT 7-4            
1 44350U 19036M   21072.83252491  .00001118  00000-0  49742-4 0  9992
2 44350  23.9999 306.0316 0005966 353.8350   6.2079 15.07663251 93902
PAINANI 1               
1 44365U 19037A   21072.70230924  .00005671  00000-0  14617-3 0  9992
2 44365  45.0056  71.0561 0006025 348.4659  11.6090 15.40258245 96004
ACRUX 1                 
1 44369U 19037E   21072.66683516  .00013568  00000-0  28342-3 0  9994
2 44369  45.0070  53.2101 0012331 341.6110  18.4333 15.45449577 96167
METEOR-M2 2             
1 44387U 19038A   21072.89139873 -.00000013  00000-0  13233-4 0  9998
2 44387  98.6583  34.1157 0001792 128.3405 231.7932 14.23686393 87872
VDNH-80                 
1 44392U 19038G   21072.87211447  .00001265  00000-0  74322-4 0  9995
2 44392  97.5755  37.9545 0019607 283.5003 128.7489 15.13418930 93139
D-STAR ONE (LIGHTSAT)   
1 44393U 19038H   21072.85242909  .00001639  00000-0  95439-4 0  9998
2 44393  97.5773  37.8200 0019965 283.7556  76.1453 15.13301708 93321
AMGU-1 (AMURSAT)        
1 44394U 19038J   21072.93406887  .00001499  00000-0  87658-4 0  9993
2 44394  97.5747  37.8539 0019905 284.0106  75.8911 15.13287337 93334
DOT-1                   
1 44399U 19038P   21072.83643325  .00001157  00000-0  70009-4 0  9990
2 44399  97.5791  37.3239 0022927 286.6084  73.2629 15.12468446 93284
SOKRAT                  
1 44404U 19038U   21072.87649647  .00001664  00000-0  97358-4 0  9993
2 44404  97.5764  37.6086 0020316 285.5004  74.3983 15.13115117 93318
LUCKY-7                 
1 44406U 19038W   21072.87543154  .00001101  00000-0  66337-4 0  9990
2 44406  97.5785  37.5424 0022719 278.8893  80.9766 15.12735525 93297
D-STAR ONE (EXOCONNECT) 
1 44410U 19038AA  21072.88255255  .00002385  00000-0  13548-3 0  9998
2 44410  97.5742  37.8168 0019917 283.6337  76.2676 15.13750751 93338
NARSSCUBE-2             
1 44415U 19022E   21072.72892265  .00001125  00000-0  49435-4 0  9993
2 44415  51.6430 178.9156 0011298 198.5122 161.5449 15.30747207 89480
SWIATOWID               
1 44426U 98067QL  21072.24581832  .03640768  11867-4  16372-2 0  9997
2 44426  51.6251  34.8464 0005175 175.4583 283.6798 16.21371814 96802
KRAKSAT                 
1 44427U 98067QM  21072.87117135  .00016818  00000-0  18718-3 0  9998
2 44427  51.6407  64.9648 0001677 237.1742 196.4260 15.62987007 96503
ENTRYSAT                
1 44429U 98067QP  21072.56005709  .00066632  00000-0  50624-3 0  9990
2 44429  51.6323  54.6428 0000394  36.0925 324.0099 15.71677930 96610
NARSSCUBE-1             
1 44792U 98067QX  21072.30256083  .00026893  00000-0  31418-3 0  9993
2 44792  51.6373  77.7694 0003648 308.8465  51.2203 15.61394290 74518
DUCHIFAT-3              
1 44854U 19089C   21072.76849815  .00000544  00000-0  49990-4 0  9990
2 44854  36.9679 306.4464 0006776  77.4529 282.6967 14.99368553 68731
OPS-SAT                 
1 44878U 19092F   21072.77199862  .00001795  00000-0  96094-4 0  9997
2 44878  97.4727 257.6817 0014883 137.8223 222.4158 15.16231127 68338
FLORIPASAT-1            
1 44885U 19093G   21072.90045802  .00000303  00000-0  44740-4 0  9990
2 44885  97.9323 153.1921 0013252 249.5846 110.3938 14.82220751 66613
HUSKYSAT-1 (HO-107)     
1 45119U 19071J   21072.80860506  .00003669  00000-0  11702-3 0  9991
2 45119  51.6414 140.4284 0011302 306.6338  53.3605 15.35091706 62470
G-SAT                   
1 45597U 98067RK  21072.76228539  .00016077  00000-0  23883-3 0  9992
2 45597  51.6398  87.6099 0004545 348.1149  11.9735 15.55337745 49702
QUETZAL-1               
1 45598U 98067RL  21072.74400568  .00019842  00000-0  28357-3 0  9999
2 45598  51.6395  87.4846 0002991  17.1939 342.9154 15.56231522 49632
BY70-2                  
1 45857U 20042B   21072.91356406  .00001130  00000-0  16847-3 0  9997
2 45857  97.9897 149.6528 0012370 155.6815 204.4984 14.76757194 37449
SALSAT                  
1 46495U 20068K   21072.88580139  .00000434  00000-0  36367-4 0  9998
2 46495  97.6873  10.9969 0018087  41.1481 319.1102 15.03378472 24976
NETSAT-4                
1 46504U 20068U   21072.77237138  .00001328  00000-0  10591-3 0  9998
2 46504  97.6794  10.4682 0010208  80.6010 279.6370 15.01999704 24870
NETSAT-3                
1 46505U 20068V   21072.77656059  .00001153  00000-0  92674-4 0  9995
2 46505  97.6773  10.4541 0009240  80.4278 279.7990 15.01949978 24888
NETSAT-1                
1 46506U 20068W   21072.78081186  .00000672  00000-0  56009-4 0  9997
2 46506  97.6770  10.4464 0008385  76.8780 283.3382 15.01904306 24888
NETSAT-2                
1 46507U 20068X   21072.78283383  .00000514  00000-0  43952-4 0  9999
2 46507  97.6780  10.4518 0008009  74.7751 285.4359 15.01878835 24837
BY70-3                  
1 46839U 20079N   21072.85221044  .00002803  00000-0  90291-4 0  9994
2 46839  97.2489 148.6136 0007279 175.7562 319.4435 15.32998354 19556
SPOC                    
1 46921U 98067RR  21072.60882248  .00011090  00000-0  18518-3 0  9999
2 46921  51.6416  93.3330 0002820  72.5948 287.5350 15.52469417 19964
BOBCAT-1                
1 46922U 98067RS  21072.76796088  .00016160  00000-0  25808-3 0  9996
2 46922  51.6423  92.1525 0002573  71.6196 288.5074 15.53339597 19955
NEUTRON-1               
1 46923U 98067RT  21072.74568285  .00010764  00000-0  18067-3 0  9994
2 46923  51.6417  92.7455 0002630  83.8187 276.3102 15.52359149 20016
1998-067RU              
1 46924U 98067RU  21072.77368889  .00027055  00000-0  40238-3 0  9992
2 46924  51.6403  91.4313 0002081  91.6340 268.4890 15.54946331 20001
DESCENT                 
1 46927U 98067RX  21072.74915321  .00009959  00000-0  16793-3 0  9993
2 46927  51.6416  92.7668 0002543 102.3372 257.7903 15.52327380 19923
UVSQ-SAT                
1 47438U 21006AB  21072.81749149  .00001084  00000-0  65101-4 0  9990
2 47438  97.4994 135.7089 0014289  71.3515 288.9266 15.12913744  7598
SOMP2B                  
1 47445U 21006AJ  21072.75600185  .00001042  00000-0  63010-4 0  9998
2 47445  97.4967 135.6169 0013943  74.9118 285.3654 15.12764875  7588
